[{"OBJECT_NAME":"STARLINK-30244","OBJECT_ID":"2023-119N","EPOCH":"2026-03-09T22:00:01.999584","MEAN_MOTION":15.15332542,"ECCENTRICITY":0.00013034,"INCLINATION":43.001,"RA_OF_ASC_NODE":79.7292,"ARG_OF_PERICENTER":272.6934,"MEAN_ANOMALY":228.3692,"EPHEMERIS_TYPE":0,"CLASSIFICATION_TYPE":"U","NORAD_CAT_ID":57614,"ELEMENT_SET_NO":999,"REV_AT_EPOCH":567,"BSTAR":0.067322769,"MEAN_MOTION_DOT":0.01410282,"MEAN_MOTION_DDOT":0},{"OBJECT_NAME":"SL-8 DEB","OBJECT_ID":"1971-114D","EPOCH":"2026-03-09T21:09:22.343904","MEAN_MOTION":15.17425388,"ECCENTRICITY":0.00068282,"INCLINATION":73.9839,"RA_OF_ASC_NODE":358.0676,"ARG_OF_PERICENTER":210.5814,"MEAN_ANOMALY":149.4984,"EPHEMERIS_TYPE":0,"CLASSIFICATION_TYPE":"U","NORAD_CAT_ID":5858,"ELEMENT_SET_NO":999,"REV_AT_EPOCH":89033,"BSTAR":0.0013634837,"MEAN_MOTION_DOT":0.00027356,"MEAN_MOTION_DDOT":0}]
